STARLINK-4372           
1 53233U 22084AW  22211.25001157 -.01286105  00000+0 -10496-1 0  9996
2 53233  97.6554 269.3777 0001606 113.8748 302.9146 15.73139046  1353
STARLINK-4368           
1 53234U 22084AX  22211.25001157 -.01285985  00000+0 -10484-1 0  9999
2 53234  97.6554 269.3777 0001621 115.9017 301.3138 15.73163150  1350
FALCON 9 DEB            
1 53235U 22084AY  22210.84288440  .00091664  00000+0  35668-3 0  9995
2 53235  97.6761 268.9946 0009643 234.6066 125.4304 15.86800063  1286
FALCON 9 DEB            
1 53236U 22084AZ  22210.84135688  .00098539  00000+0  37658-3 0  9990
2 53236  97.6742 268.9945 0007855 219.0250 141.0454 15.87177576  1287
FALCON 9 DEB            
1 53237U 22084BA  22210.83681178  .00106439  63501-5  39023-3 0  9998
2 53237  97.6706 268.9968 0012792 215.7284 144.3132 15.88262036  1285
FALCON 9 DEB            
1 53238U 22084BB  22210.83548575  .00105101  62630-5  38013-3 0  9997
2 53238  97.6691 268.9968 0012334 202.8265 157.2460 15.88547540  1280
CSS (WENTIAN)           
1 53239U 22085A   22210.49552410  .00005581  00000+0  67340-4 0  9998
2 53239  41.4749 321.2838 0006648 304.1282 155.6826 15.61428996 71387
CZ-5B R/B               
1 53240U 22085B   22211.34886663  .06910244  79190-5  20097-3 0  9991
2 53240  41.4691 312.7747 0029784 220.5890 205.6573 16.41710345   985
STARLINK-4056           
1 53242U 22086A   22211.25001157 -.01373664  51321-3 -54445-2 0  9994
2 53242  53.2175  15.2672 0025763  56.1744 151.7980 15.85561010  1525
STARLINK-4047           
1 53243U 22086B   22211.25001157 -.01372720  51232-3 -54449-2 0  9992
2 53243  53.2174  15.2700 0026624  56.4533 150.6263 15.85507386  1521
STARLINK-4125           
1 53244U 22086C   22211.25001157 -.01373930  51347-3 -54401-2 0  9992
2 53244  53.2175  15.2668 0025816  56.0266 152.2363 15.85579230  1523
STARLINK-4124           
1 53245U 22086D   22211.25001157 -.01373098  51266-3 -54482-2 0  9997
2 53245  53.2175  15.2695 0026056  56.3626 151.0056 15.85525847  1525
STARLINK-4131           
1 53246U 22086E   22211.25001157 -.01373521  51303-3 -54489-2 0  9998
2 53246  53.2175  15.2682 0025744  56.0705 151.6056 15.85543165  1529
STARLINK-4061           
1 53247U 22086F   22211.25001157 -.01374113  51368-3 -54364-2 0  9990
2 53247  53.2175  15.2670 0025796  56.0577 152.5066 15.85596743  1522
STARLINK-4135           
1 53248U 22086G   22211.25001157 -.01374670  51414-3 -54444-2 0  9990
2 53248  53.2175  15.2658 0024870  55.6915 153.1716 15.85614565  1524
STARLINK-4128           
1 53249U 22086H   22211.25001157 -.01375306  51482-3 -54335-2 0  9992
2 53249  53.2175  15.2647 0024782  55.6044 154.1317 15.85668756  1527
STARLINK-4059           
1 53250U 22086J   22211.25001157 -.01375148  51454-3 -54488-2 0  9996
2 53250  53.2175  15.2652 0024234  55.3739 153.8009 15.85631555  1526
STARLINK-4129           
1 53251U 22086K   22211.25001157 -.01375292  51498-3 -54134-2 0  9993
2 53251  53.2175  15.2637 0025718  56.0536 154.2677 15.85704370  1523
STARLINK-4132           
1 53252U 22086L   22211.25001157 -.01375185  51466-3 -54428-2 0  9996
2 53252  53.2175  15.2648 0024326  55.6336 153.8095 15.85650878  1525
STARLINK-4133           
1 53253U 22086M   22211.25001157 -.01375166  51497-3 -54021-2 0  9999
2 53253  53.2175  15.2631 0026252  56.4750 154.1451 15.85721728  1520
STARLINK-4134           
1 53254U 22086N   22211.25001157 -.01375067  51474-3 -54175-2 0  9995
2 53254  53.2175  15.2638 0025689  56.1218 153.9013 15.85686801  1520
STARLINK-4142           
1 53255U 22086P   22211.25001157 -.01375875  51562-3 -54014-2 0  9993
2 53255  53.2175  15.2620 0025758  56.0493 155.1710 15.85756638  1527
STARLINK-4147           
1 53256U 22086Q   22211.25001157 -.01375760  51546-3 -54082-2 0  9994
2 53256  53.2175  15.2620 0025514  55.9760 154.9353 15.85739817  1523
STARLINK-4144           
1 53257U 22086R   22211.25001157 -.01376607  51637-3 -53953-2 0  9993
2 53257  53.2175  15.2603 0025278  55.8410 156.2342 15.85811320  1526
STARLINK-4127           
1 53258U 22086S   22211.25001157 -.01376233  51595-3 -54056-2 0  9997
2 53258  53.2175  15.2610 0025084  55.9246 155.5786 15.85775068  1520
STARLINK-4140           
1 53259U 22086T   22211.25001157 -.01376738  51654-3 -53896-2 0  9995
2 53259  53.2175  15.2598 0025438  55.9057 156.4798 15.85827979  1521
STARLINK-4136           
1 53260U 22086U   22211.25001157 -.01376622  51629-3 -54036-2 0  9998
2 53260  53.2175  15.2604 0025007  55.5191 156.2977 15.85791701  1528
STARLINK-4062           
1 53261U 22086V   22211.25001157 -.01377434  51726-3 -53818-2 0  9996
2 53261  53.2175  15.2581 0025137  55.7143 157.5535 15.85880759  1522
STARLINK-4085           
1 53262U 22086W   22211.25001157 -.01376980  51679-3 -53885-2 0  9993
2 53262  53.2175  15.2588 0025193  55.8451 156.8238 15.85846228  1520
STARLINK-4130           
1 53263U 22086X   22211.25001157 -.01377483  51738-3 -53730-2 0  9998
2 53263  53.2175  15.2576 0025509  55.8017 157.7484 15.85898912  1527
STARLINK-3950           
1 53264U 22086Y   22211.25001157 -.01377328  51710-3 -53896-2 0  9990
2 53264  53.2175  15.2582 0024829  55.6997 157.2843 15.85862652  1520
STARLINK-4097           
1 53265U 22086Z   22211.25001157 -.01377951  51786-3 -53704-2 0  9994
2 53265  53.2175  15.2565 0025078  55.7884 158.3453 15.85934183  1523
STARLINK-4058           
1 53266U 22086AA  22211.25001157 -.01377954  51778-3 -53809-2 0  9995
2 53266  53.2175  15.2565 0024556  55.5562 158.2913 15.85916348  1528
STARLINK-4060           
1 53267U 22086AB  22211.25001157 -.01378437  51843-3 -53552-2 0  9991
2 53267  53.2175  15.2547 0025404  55.7270 159.3106 15.85985213  1523
STARLINK-4109           
1 53268U 22086AC  22211.25001157 -.01377710  51778-3 -53540-2 0  9999
2 53268  53.2175  15.2554 0026029  56.3164 158.1060 15.85951753  1523
STARLINK-4057           
1 53269U 22086AD  22211.25001157 -.01378446  51861-3 -53351-2 0  9990
2 53269  53.2175  15.2536 0026339  56.1067 159.4993 15.86020913  1523
STARLINK-4113           
1 53270U 22086AE  22211.25001157  .00304751  49884-4  44848-3 0  9992
2 53270  53.2204  15.0406 0071926  63.6881 253.8787 15.99413507  1520
STARLINK-4069           
1 53271U 22086AF  22211.25001157 -.01378843  51905-3 -53292-2 0  9997
2 53271  53.2175  15.2525 0026135  56.0182 160.1271 15.86058358  1527
STARLINK-4122           
1 53272U 22086AG  22211.25001157 -.01377692  51801-3 -53393-2 0  9996
2 53272  53.2175  15.2537 0026088  57.5026 157.7832 15.86004787  1523
STARLINK-4051           
1 53273U 22086AH  22211.25001157 -.01379380  51959-3 -53270-2 0  9991
2 53273  53.2175  15.2514 0025711  55.7916 160.9353 15.86093346  1522
STARLINK-4050           
1 53274U 22086AJ  22211.25001157 -.01378548  51877-3 -53298-2 0  9996
2 53274  53.2175  15.2526 0026398  56.2126 159.6564 15.86039987  1527
STARLINK-4179           
1 53275U 22086AK  22211.25001157 -.01379421  51970-3 -53212-2 0  9998
2 53275  53.2175  15.2508 0025820  56.0295 160.9772 15.86111330  1521
STARLINK-4174           
1 53276U 22086AL  22211.25001157 -.01379141  51934-3 -53310-2 0  9997
2 53276  53.2175  15.2515 0025672  55.9273 160.5026 15.86076236  1522
STARLINK-4178           
1 53277U 22086AM  22211.25001157 -.01380112  52041-3 -53154-2 0  9994
2 53277  53.2175  15.2491 0025379  55.7491 162.1416 15.86162882  1524
STARLINK-4180           
1 53278U 22086AN  22211.25001157 -.01379936  52013-3 -53275-2 0  9990
2 53278  53.2175  15.2498 0025042  55.5335 161.7712 15.86128481  1525
STARLINK-4163           
1 53279U 22086AP  22211.19783439  .04036248  11915-4  17152-2 0  9992
2 53279  53.2175  14.9634 0031627  48.8622 129.7904 16.20728162  1522
STARLINK-4169           
1 53280U 22086AQ  22211.25001157 -.01379661  52003-3 -53083-2 0  9994
2 53280  53.2175  15.2492 0026196  56.0575 161.5031 15.86147625  1528
STARLINK-4182           
1 53281U 22086AR  22211.25001157 -.01380446  52090-3 -52941-2 0  9996
2 53281  53.2175  15.2475 0026135  55.7725 162.9617 15.86216338  1529
STARLINK-4164           
1 53282U 22086AS  22211.25001157 -.01379947  52039-3 -52981-2 0  9998
2 53282  53.2175  15.2481 0026415  56.0567 162.1056 15.86181141  1528
STARLINK-4175           
1 53283U 22086AT  22211.25001157 -.01380176  52079-3 -52796-2 0  9993
2 53283  53.2175  15.2470 0026890  56.4765 162.5377 15.86233999  1527
STARLINK-4172           
1 53284U 22086AU  22211.25001157 -.01379981  52050-3 -52896-2 0  9996
2 53284  53.2175  15.2477 0026742  56.2025 162.2310 15.86199481  1529
STARLINK-4173           
1 53285U 22086AV  22211.25001157 -.01380908  52155-3 -52736-2 0  9997
2 53285  53.2175  15.2454 0026452  56.0734 163.7779 15.86287696  1529
STARLINK-4165           
1 53286U 22086AW  22211.25001157 -.01380617  52118-3 -52814-2 0  9991
2 53286  53.2175  15.2460 0026494  55.9623 163.3391 15.86251558  1522
STARLINK-4107           
1 53287U 22086AX  22211.25001157 -.01381192  52190-3 -52661-2 0  9991
2 53287  53.2175  15.2443 0026452  56.1410 164.3141 15.86320743  1522
STARLINK-4162           
1 53288U 22086AY  22211.25001157 -.01380738  52134-3 -52787-2 0  9994
2 53288  53.2175  15.2454 0026385  56.1134 163.4815 15.86268593  1525
STARLINK-4176           
1 53289U 22086AZ  22211.25001157 -.01381460  52226-3 -52560-2 0  9999
2 53289  53.2175  15.2433 0026588  56.1665 164.8247 15.86357453  1525
STARLINK-4149           
1 53290U 22086BA  22211.25001157 -.01381071  52173-3 -52694-2 0  9998
2 53290  53.2175  15.2443 0026523  56.0503 164.1239 15.86303062  1528
STARLINK-4166           
1 53291U 22086BB  22211.25001157 -.01381597  52243-3 -52519-2 0  9996
2 53291  53.2175  15.2427 0026628  56.2279 165.0727 15.86373475  1526
STARLINK-4159           
1 53292U 22086BC  22211.25001157 -.01381365  52211-3 -52612-2 0  9999
2 53292  53.2175  15.2433 0026511  56.0816 164.6348 15.86339497  1520
